OBJECT_NAME,OBJECT_ID,EPOCH,MEAN_MOTION,ECCENTRICITY,INCLINATION,RA_OF_ASC_NODE,ARG_OF_PERICENTER,MEAN_ANOMALY,EPHEMERIS_TYPE,CLASSIFICATION_TYPE,NORAD_CAT_ID,ELEMENT_SET_NO,REV_AT_EPOCH,BSTAR,MEAN_MOTION_DOT,MEAN_MOTION_DDOT
STARLINK-37478,2026-117Y,2026-06-11T06:00:02.000160,15.86517463,.00004741,53.1555,272.6767,81.0220,313.9222,0,U,69260,999,322,-.84026001E-2,-.1899032E-1,0
STARLINK-37506,2026-117Z,2026-06-11T06:00:02.000160,15.85939487,.00007449,53.1552,272.6648,80.7209,319.7656,0,U,69261,999,322,-.85329951E-2,-.1877596E-1,0
STARLINK-37503,2026-117AA,2026-06-11T06:00:02.000160,15.85781378,.00006141,53.1557,272.6598,84.6106,318.0330,0,U,69262,999,322,-.87756054E-2,-.1910965E-1,0
STARLINK-37502,2026-117AB,2026-06-11T06:00:02.000160,15.85780969,.00006876,53.1556,272.6548,74.4190,330.4253,0,U,69263,999,322,-.84821432E-2,-.1814487E-1,0
STARLINK-37486,2026-117AC,2026-06-11T06:00:02.000160,15.85450310,.00006666,53.1552,272.6464,79.5747,329.4677,0,U,69264,999,322,-.72403148E-2,-.1560278E-1,0
STARLINK-37435,2026-117AD,2026-06-11T06:00:02.000160,15.84370528,.00007397,53.1559,272.6459,75.2915,333.4107,0,U,69265,999,322,-.86829785E-2,-.1745298E-1,0
STARLINK-37464,2026-117AE,2026-06-11T06:00:02.000160,15.83046405,.00008025,53.1562,272.6321,77.9153,337.2855,0,U,69266,999,322,-.70476774E-2,-.1348955E-1,0
KUIPER-00282,2026-118A,2026-06-11T05:32:30.490944,15.34680175,.00117857,51.8590,82.2555,158.2230,201.9259,0,U,69267,999,306,.73760268E-3,.24921E-3,0
KUIPER-00383,2026-118B,2026-06-11T05:28:08.583168,15.34767179,.00106834,51.8595,82.2365,161.2070,198.9312,0,U,69268,999,306,-.23273857E-2,-.79352E-3,0
KUIPER-00527,2026-118C,2026-06-11T05:23:33.959904,15.35410159,.00102177,51.8619,82.2195,153.4364,206.7147,0,U,69269,999,306,-.90389104E-3,-.31882E-3,0
KUIPER-00562,2026-118D,2026-06-11T04:55:51.284352,15.38516811,.00019164,51.8714,82.0875,101.4638,258.6565,0,U,69270,999,306,.36873757E-3,.1387E-3,0
KUIPER-00570,2026-118E,2026-06-11T05:27:11.237760,15.35369664,.00117136,51.8579,82.2312,163.2372,196.9003,0,U,69271,999,306,.66461783E-3,.22915E-3,0
KUIPER-00572,2026-118F,2026-06-11T05:14:32.721792,15.36871941,.00073232,51.8669,82.1784,148.7836,211.3587,0,U,69272,999,306,.58125537E-3,.20962E-3,0
KUIPER-00581,2026-118G,2026-06-11T05:18:11.877120,15.36553335,.00088664,51.8653,82.1960,153.3816,206.7627,0,U,69273,999,315,.4746276E-3,.16865E-3,0
KUIPER-00584,2026-118H,2026-06-11T05:29:54.697056,15.35186956,.00110474,51.8604,82.2444,165.6489,194.4812,0,U,69274,999,306,.43762317E-4,.1133E-4,0
KUIPER-00587,2026-118J,2026-06-11T05:17:28.299552,15.36533394,.00084164,51.8622,82.1924,155.1719,204.9674,0,U,69275,999,306,.53678486E-3,.19116E-3,0
KUIPER-00590,2026-118K,2026-06-11T05:04:26.020992,15.37752050,.00043182,51.8682,82.1345,135.5722,224.5612,0,U,69276,999,306,.47813507E-3,.17662E-3,0
KUIPER-00592,2026-118L,2026-06-11T05:01:59.909952,15.37987777,.00037014,51.8704,82.1214,114.4542,245.6832,0,U,69277,999,306,.4899872E-3,.18251E-3,0
KUIPER-00593,2026-118M,2026-06-11T05:02:35.212992,15.37883049,.00039963,51.8709,82.1231,130.7352,229.3983,0,U,69278,999,312,.52543977E-3,.19537E-3,0
KUIPER-00594,2026-118N,2026-06-11T04:54:20.058048,15.38493525,.00012292,51.8712,82.0850,65.5830,294.5286,0,U,69279,999,306,.54520488E-3,.207E-3,0
KUIPER-00595,2026-118P,2026-06-11T04:56:54.612960,15.38387896,.0001887,51.8707,82.0976,110.0836,250.0354,0,U,69280,999,309,.60389259E-3,.22897E-3,0
KUIPER-00596,2026-118Q,2026-06-11T05:27:59.631264,15.35443024,.0011641,51.8556,82.2335,161.2156,198.9261,0,U,69281,999,306,-.53943216E-3,-.19246E-3,0
KUIPER-00597,2026-118R,2026-06-11T05:12:16.098336,15.36936837,.00071629,51.8645,82.1695,146.8002,213.3435,0,U,69282,999,306,.32924184E-3,.11714E-3,0
KUIPER-00599,2026-118S,2026-06-11T05:10:03.751680,15.37231053,.00063259,51.8686,82.1593,141.3616,218.7824,0,U,69283,999,306,.27836564E-3,.9936E-4,0
KUIPER-00600,2026-118T,2026-06-11T05:16:40.253376,15.36594840,.0008988,51.8639,82.1887,150.8343,209.3147,0,U,69284,999,306,.25838475E-4,.546E-5,0
KUIPER-00601,2026-118U,2026-06-11T05:06:37.278144,15.37565245,.00048322,51.8699,82.1433,133.5032,226.6357,0,U,69285,999,306,.48565241E-3,.17837E-3,0
KUIPER-00602,2026-118V,2026-06-11T05:01:03.459648,15.38014932,.00031478,51.8695,82.1183,124.0404,236.0883,0,U,69286,999,306,.35719818E-3,.132E-3,0
KUIPER-00603,2026-118W,2026-06-11T05:07:59.390976,15.37410660,.00056561,51.8666,82.1503,137.4375,222.7051,0,U,69287,999,306,.28148918E-3,.10111E-3,0
KUIPER-00605,2026-118X,2026-06-11T05:13:26.376096,15.36957257,.00076839,51.8658,82.1747,143.0555,217.0962,0,U,69288,999,306,.27280658E-3,.9643E-4,0
KUIPER-00606,2026-118Y,2026-06-11T05:05:15.158400,15.37665888,.00046776,51.8693,82.1375,130.5207,229.6188,0,U,69289,999,306,.59271445E-3,.2194E-3,0
