STARLINK-37478          
1 69260U 26117Y   26162.25002315 -.01899032  00000+0 -84026-2 0  9990
2 69260  53.1555 272.6767 0000474  81.0220 313.9222 15.86517463  3229
STARLINK-37506          
1 69261U 26117Z   26162.25002315 -.01877596  00000+0 -85330-2 0  9991
2 69261  53.1552 272.6648 0000744  80.7209 319.7656 15.85939487  3226
STARLINK-37503          
1 69262U 26117AA  26162.25002315 -.01910965  00000+0 -87756-2 0  9994
2 69262  53.1557 272.6598 0000614  84.6106 318.0330 15.85781378  3226
STARLINK-37502          
1 69263U 26117AB  26162.25002315 -.01814487  00000+0 -84821-2 0  9997
2 69263  53.1556 272.6548 0000687  74.4190 330.4253 15.85780969  3228
STARLINK-37486          
1 69264U 26117AC  26162.25002315 -.01560278  00000+0 -72403-2 0  9997
2 69264  53.1552 272.6464 0000666  79.5747 329.4677 15.85450310  3225
STARLINK-37435          
1 69265U 26117AD  26162.25002315 -.01745298  00000+0 -86830-2 0  9994
2 69265  53.1559 272.6459 0000739  75.2915 333.4107 15.84370528  3222
STARLINK-37464          
1 69266U 26117AE  26162.25002315 -.01348955  00000+0 -70477-2 0  9994
2 69266  53.1562 272.6321 0000802  77.9153 337.2855 15.83046405  3224
KUIPER-00282            
1 69267U 26118A   26162.23090846  .00024921  00000+0  73760-3 0  9990
2 69267  51.8590  82.2555 0011785 158.2230 201.9259 15.34680175  3067
KUIPER-00383            
1 69268U 26118B   26162.22787712 -.00079352  00000+0 -23274-2 0  9999
2 69268  51.8595  82.2365 0010683 161.2070 198.9312 15.34767179  3069
KUIPER-00527            
1 69269U 26118C   26162.22469861 -.00031882  00000+0 -90389-3 0  9990
2 69269  51.8619  82.2195 0010217 153.4364 206.7147 15.35410159  3068
KUIPER-00562            
1 69270U 26118D   26162.20545468  .00013870  00000+0  36874-3 0  9992
2 69270  51.8714  82.0875 0001916 101.4638 258.6565 15.38516811  3067
KUIPER-00570            
1 69271U 26118E   26162.22721340  .00022915  00000+0  66462-3 0  9996
2 69271  51.8579  82.2312 0011713 163.2372 196.9003 15.35369664  3062
KUIPER-00572            
1 69272U 26118F   26162.21843428  .00020962  00000+0  58126-3 0  9996
2 69272  51.8669  82.1784 0007323 148.7836 211.3587 15.36871941  3066
KUIPER-00581            
1 69273U 26118G   26162.22097080  .00016865  00000+0  47463-3 0  9992
2 69273  51.8653  82.1960 0008866 153.3816 206.7627 15.36553335  3156
KUIPER-00584            
1 69274U 26118H   26162.22910529  .00001133  00000+0  43762-4 0  9996
2 69274  51.8604  82.2444 0011047 165.6489 194.4812 15.35186956  3067
KUIPER-00587            
1 69275U 26118J   26162.22046643  .00019116  00000+0  53678-3 0  9990
2 69275  51.8622  82.1924 0008416 155.1719 204.9674 15.36533394  3062
KUIPER-00590            
1 69276U 26118K   26162.21141228  .00017662  00000+0  47814-3 0  9994
2 69276  51.8682  82.1345 0004318 135.5722 224.5612 15.37752050  3062
KUIPER-00592            
1 69277U 26118L   26162.20972118  .00018251  00000+0  48999-3 0  9994
2 69277  51.8704  82.1214 0003701 114.4542 245.6832 15.37987777  3068
KUIPER-00593            
1 69278U 26118M   26162.21012978  .00019537  00000+0  52544-3 0  9994
2 69278  51.8709  82.1231 0003996 130.7352 229.3983 15.37883049  3129
KUIPER-00594            
1 69279U 26118N   26162.20439882  .00020700  00000+0  54520-3 0  9991
2 69279  51.8712  82.0850 0001229  65.5830 294.5286 15.38493525  3063
KUIPER-00595            
1 69280U 26118P   26162.20618765  .00022897  00000+0  60389-3 0  9991
2 69280  51.8707  82.0976 0001887 110.0836 250.0354 15.38387896  3099
KUIPER-00596            
1 69281U 26118Q   26162.22777351 -.00019246  00000+0 -53943-3 0  9995
2 69281  51.8556  82.2335 0011641 161.2156 198.9261 15.35443024  3062
KUIPER-00597            
1 69282U 26118R   26162.21685299  .00011714  00000+0  32924-3 0  9990
2 69282  51.8645  82.1695 0007162 146.8002 213.3435 15.36936837  3067
KUIPER-00599            
1 69283U 26118S   26162.21532120  .00009936  00000+0  27837-3 0  9995
2 69283  51.8686  82.1593 0006325 141.3616 218.7824 15.37231053  3061
KUIPER-00600            
1 69284U 26118T   26162.21991034  .00000546  00000+0  25838-4 0  9997
2 69284  51.8639  82.1887 0008988 150.8343 209.3147 15.36594840  3064
KUIPER-00601            
1 69285U 26118U   26162.21293146  .00017837  00000+0  48565-3 0  9999
2 69285  51.8699  82.1433 0004832 133.5032 226.6357 15.37565245  3068
KUIPER-00602            
1 69286U 26118V   26162.20906782  .00013200  00000+0  35720-3 0  9995
2 69286  51.8695  82.1183 0003147 124.0404 236.0883 15.38014932  3065
KUIPER-00603            
1 69287U 26118W   26162.21388184  .00010111  00000+0  28149-3 0  9992
2 69287  51.8666  82.1503 0005656 137.4375 222.7051 15.37410660  3068
KUIPER-00605            
1 69288U 26118X   26162.21766639  .00009643  00000+0  27281-3 0  9992
2 69288  51.8658  82.1747 0007683 143.0555 217.0962 15.36957257  3060
KUIPER-00606            
1 69289U 26118Y   26162.21198100  .00021940  00000+0  59271-3 0  9993
2 69289  51.8693  82.1375 0004677 130.5207 229.6188 15.37665888  3068
